GSAT0101 (GALILEO-PFM)  
1 37846U 11060A   25094.66940456 -.00000107  00000+0  00000+0 0  9993
2 37846  57.1051 353.6470 0003953  11.7187 348.3206  1.70475733 83646
GSAT0102 (GALILEO-FM2)  
1 37847U 11060B   25093.68039508 -.00000104  00000+0  00000+0 0  9999
2 37847  57.1059 353.6742 0004842 346.4121 171.9691  1.70475878 83638
GSAT0103 (GALILEO-FM3)  
1 38857U 12055A   25095.88220476  .00000038  00000+0  00000+0 0  9991
2 38857  55.5499 113.5562 0005980 282.1779  77.7996  1.70473495 77550
GSAT0201 (GALILEO 5)    
1 40128U 14050A   25094.14226532 -.00000030  00000+0  00000+0 0  9992
2 40128  49.3528 291.3227 1624718 162.4260 203.9289  1.85519687 72118
GSAT0202 (GALILEO 6)    
1 40129U 14050B   25093.32146462 -.00000030  00000+0  00000+0 0  9995
2 40129  49.3699 290.4367 1624485 163.1735 202.9206  1.85520384 72326
GSAT0203 (GALILEO 7)    
1 40544U 15017A   25093.27500628 -.00000103  00000+0  00000+0 0  9993
2 40544  56.8985 353.5785 0003867 294.7341  65.2581  1.70475000 61705
GSAT0204 (GALILEO 8)    
1 40545U 15017B   25093.52983662 -.00000104  00000+0  00000+0 0  9996
2 40545  56.9060 353.5891 0003083 285.7715  74.2264  1.70475360 24755
GSAT0205 (GALILEO 9)    
1 40889U 15045A   25095.05783173 -.00000010  00000+0  00000+0 0  9999
2 40889  55.0969 233.7047 0005101  48.2008 311.7988  1.70473891 59540
GSAT0206 (GALILEO 10)   
1 40890U 15045B   25094.10529138 -.00000002  00000+0  00000+0 0  9996
2 40890  55.0958 233.7262 0003017  51.3475 308.6361  1.70473785 59559
GSAT0209 (GALILEO 12)   
1 41174U 15079A   25093.68739274  .00000030  00000+0  00000+0 0  9995
2 41174  55.5680 113.3285 0005341 313.8950  46.1020  1.70474420 57287
GSAT0208 (GALILEO 11)   
1 41175U 15079B   25095.08051726  .00000034  00000+0  00000+0 0  9995
2 41175  55.5676 113.2875 0004718 314.2397  45.7636  1.70474348 57720
GSAT0211 (GALILEO 14)   
1 41549U 16030A   25093.44445148  .00000003  00000+0  00000+0 0  9997
2 41549  55.2448 233.7869 0002843  18.6989 341.2672  1.70473885 55153
GSAT0210 (GALILEO 13)   
1 41550U 16030B   25093.11565124  .00000005  00000+0  00000+0 0  9992
2 41550  55.2455 233.7944 0001796 195.5761 164.3733  1.70473887 55161
GSAT0207 (GALILEO 15)   
1 41859U 16069A   25095.15399864  .00000033  00000+0  00000+0 0  9999
2 41859  55.2356 113.2183 0005736 302.7181  57.2687  1.70474391 51936
GSAT0212 (GALILEO 16)   
1 41860U 16069B   25093.83478301  .00000029  00000+0  00000+0 0  9993
2 41860  55.2325 113.2507 0004131 323.3292  36.6834  1.70474560 52163
GSAT0213 (GALILEO 17)   
1 41861U 16069C   25094.20287561  .00000030  00000+0  00000+0 0  9994
2 41861  55.2351 113.2477 0005820 288.0052  71.9721  1.70474884 52038
GSAT0214 (GALILEO 18)   
1 41862U 16069D   25094.34842380  .00000030  00000+0  00000+0 0  9996
2 41862  55.2338 113.2369 0004837 290.9917  68.9974  1.70474622 52163
GSAT0215 (GALILEO 19)   
1 43055U 17079A   25094.83859058 -.00000008  00000+0  00000+0 0  9994
2 43055  55.2220 233.5665 0000302 264.8385  95.1145  1.70474568 45518
GSAT0216 (GALILEO 20)   
1 43056U 17079B   25093.37031888  .00000003  00000+0  00000+0 0  9990
2 43056  55.2232 233.6068 0001713 291.6877  68.2497  1.70474620 45500
GSAT0217 (GALILEO 21)   
1 43057U 17079C   25095.35065325 -.00000013  00000+0  00000+0 0  9996
2 43057  55.2209 233.5507 0001574 330.9593  28.9875  1.70474644 45520
GSAT0218 (GALILEO 22)   
1 43058U 17079D   25095.57070271 -.00000015  00000+0  00000+0 0  9999
2 43058  55.2200 233.5423 0002184 280.6902  79.2403  1.70474591 45552
GSAT0221 (GALILEO 25)   
1 43564U 18060A   25095.47266847 -.00000108  00000+0  00000+0 0  9990
2 43564  57.2800 353.5935 0004601 310.8609  49.1288  1.70475451 41705
GSAT0222 (GALILEO 26)   
1 43565U 18060B   25092.17211095 -.00000098  00000+0  00000+0 0  9998
2 43565  57.2840 353.6853 0003110 287.7957  72.2052  1.70475106 41693
GSAT0219 (GALILEO 23)   
1 43566U 18060C   25094.73991027 -.00000107  00000+0  00000+0 0  9994
2 43566  57.2828 353.6175 0004195 322.2770  37.7238  1.70475370 41717
GSAT0220 (GALILEO 24)   
1 43567U 18060D   25093.20095826 -.00000102  00000+0  00000+0 0  9993
2 43567  57.2827 353.6588 0004353 314.9139  45.0836  1.70475655 41675
GSAT0223 (GALILEO 27)   
1 49809U 21116A   25095.69884939 -.00000108  00000+0  00000+0 0  9996
2 49809  57.2727 353.4839 0001011 289.3119 254.2909  1.70475434 20720
GSAT0224 (GALILEO 28)   
1 49810U 21116B   25093.16651959 -.00000102  00000+0  00000+0 0  9996
2 49810  57.2733 353.5500 0001729 278.3135 263.7056  1.70475310 20706
GSAT0225 (GALILEO 29)   
1 59598U 24079A   25095.82092884  .00000036  00000+0  00000+0 0  9997
2 59598  54.8539 113.3131 0003037 254.1007 108.8633  1.70474834  5863
GSAT0227 (GALILEO 30)   
1 59600U 24079C   25094.82633927  .00000031  00000+0  00000+0 0  9994
2 59600  54.8485 113.3414 0000340 289.3926  70.6453  1.70474726  5894
GSAT0232 (GALILEO 32)   
1 61182U 24167A   25094.54364725 -.00000005  00000+0  00000+0 0  9998
2 61182  55.3323 233.3460 0003021 193.5761 188.0781  1.70474041  3408
GSAT0226 (GALILEO 31)   
1 61183U 24167B   25095.49419854 -.00000014  00000+0  00000+0 0  9998
2 61183  55.3303 233.3257 0001890 145.9372 211.6562  1.70474227  3385
